[{"OBJECT_NAME":"ONEWEB-0340","OBJECT_ID":"2021-083W","EPOCH":"2026-03-09T19:28:59.995200","MEAN_MOTION":13.18686539,"ECCENTRICITY":0.00017287,"INCLINATION":87.9253,"RA_OF_ASC_NODE":355.1897,"ARG_OF_PERICENTER":75.806,"MEAN_ANOMALY":284.3264,"EPHEMERIS_TYPE":0,"CLASSIFICATION_TYPE":"U","NORAD_CAT_ID":49206,"ELEMENT_SET_NO":999,"REV_AT_EPOCH":21687,"BSTAR":2.8657305e-5,"MEAN_MOTION_DOT":2.4e-7,"MEAN_MOTION_DDOT":0},{"OBJECT_NAME":"CZ-4C DEB","OBJECT_ID":"2012-029E","EPOCH":"2026-03-09T15:30:02.575296","MEAN_MOTION":13.08839558,"ECCENTRICITY":0.0138685,"INCLINATION":100.2133,"RA_OF_ASC_NODE":10.0709,"ARG_OF_PERICENTER":350.8996,"MEAN_ANOMALY":8.9605,"EPHEMERIS_TYPE":0,"CLASSIFICATION_TYPE":"U","NORAD_CAT_ID":38663,"ELEMENT_SET_NO":999,"REV_AT_EPOCH":59690,"BSTAR":0.00022991,"MEAN_MOTION_DOT":4.0e-7,"MEAN_MOTION_DDOT":0}]
